HYPERFIELD-1A           
1 60562U 24149CY  26068.76488211  .00008569  00000+0  30052-3 0  9998
2 60562  97.3842 149.5066 0003865 313.7844  46.3076 15.29681349 86836
STARLINK-33911          
1 63777U 25091C   26067.96548574  .00035170  00000+0  12813-2 0  9998
2 63777  43.0021  49.4639 0001593 251.2035 108.8644 15.27584249 48878
